GLOBALSTAR M023         
1 25621U 99004A   24272.53493111  .00000033  00000+0  75852-3 0  9997
2 25621  52.0091 130.1681 0009207 270.2958 118.8838 12.62476003182689
GLOBALSTAR M040         
1 25622U 99004B   24272.35991602 -.00000073  00000+0  17354-3 0  9994
2 25622  51.9898 134.4638 0001012 123.0337  47.9662 12.61984545182191
GLOBALSTAR M036         
1 25623U 99004C   24272.59471723 -.00000206  00000+0 -18040-2 0  9999
2 25623  51.9955 209.8107 0010370 272.7475 258.3102 11.86579664147923
GLOBALSTAR M038         
1 25624U 99004D   24272.55313255 -.00000050  00000+0  37420-3 0  9991
2 25624  51.9955 105.0370 0001185 202.8351 188.3389 12.32508888170112
GLOBALSTAR M022         
1 25649U 99012A   24272.33073289 -.00000072  00000+0  18164-3 0  9991
2 25649  52.0033 282.7438 0002467  16.9581  84.9571 12.02488455144871
GLOBALSTAR M041         
1 25650U 99012B   24272.35946089 -.00000129  00000+0 -56216-3 0  9996
2 25650  52.0007 156.1320 0002457 152.1440 207.9528 11.96659038146931
GLOBALSTAR M046         
1 25651U 99012C   24272.62561057 -.00000143  00000+0 -60392-3 0  9991
2 25651  52.0035 241.6229 0002514  83.4137  88.0391 12.09398559152019
GLOBALSTAR M037         
1 25652U 99012D   24272.28027900 -.00000068  00000+0  20169-3 0  9991
2 25652  51.9991 261.6565 0001910 336.2359 127.3023 12.62419255178190
